[{"OBJECT_NAME":"FORTE","OBJECT_ID":"1997-047A","EPOCH":"2026-03-09T21:41:12.798240","MEAN_MOTION":14.27898785,"ECCENTRICITY":0.00196357,"INCLINATION":69.9517,"RA_OF_ASC_NODE":238.2652,"ARG_OF_PERICENTER":49.0734,"MEAN_ANOMALY":311.2084,"EPHEMERIS_TYPE":0,"CLASSIFICATION_TYPE":"U","NORAD_CAT_ID":24920,"ELEMENT_SET_NO":999,"REV_AT_EPOCH":48451,"BSTAR":0.0001374801,"MEAN_MOTION_DOT":2.83e-6,"MEAN_MOTION_DDOT":0},{"OBJECT_NAME":"CZ-6A DEB","OBJECT_ID":"2024-140MA","EPOCH":"2026-03-09T13:52:00.344928","MEAN_MOTION":14.57677332,"ECCENTRICITY":0.0127216,"INCLINATION":88.9606,"RA_OF_ASC_NODE":279.4316,"ARG_OF_PERICENTER":237.8562,"MEAN_ANOMALY":121.0255,"EPHEMERIS_TYPE":0,"CLASSIFICATION_TYPE":"U","NORAD_CAT_ID":60975,"ELEMENT_SET_NO":999,"REV_AT_EPOCH":8258,"BSTAR":0.00032943,"MEAN_MOTION_DOT":1.697e-5,"MEAN_MOTION_DDOT":0}]
